{
  "type": "FeatureCollection",
  "features": [
    {
      "type": "Feature",
      "properties": {
        "norad_id": 38709,
        "name": "EXACTVIEW-1 (ADS-1B)",
        "group": "resource",
        "lat": -76.99554821175354,
        "lon": 133.7835772323472,
        "alt_km": 815.7412435076812,
        "timestamp": "2025-12-08T08:59:00.429007+00:00",
        "meta_object_name": "EXACTVIEW-1 (ADS-1B)",
        "meta_object_id": "2012-039C",
        "meta_epoch": "2025-12-07T21:33:48.847392",
        "meta_mean_motion": 14.24904758,
        "meta_eccentricity": 0.00109233,
        "meta_inclination": 98.9636,
        "meta_ra_of_asc_node": 90.187,
        "meta_arg_of_pericenter": 8.1941,
        "meta_mean_anomaly": 351.9414,
        "meta_ephemeris_type": 0,
        "meta_classification_type": "U",
        "meta_norad_cat_id": 38709,
        "meta_element_set_no": 999,
        "meta_rev_at_epoch": 69546,
        "meta_bstar": 0.00014142046,
        "meta_mean_motion_dot": 2.84e-06,
        "meta_mean_motion_ddot": 0,
        "tle_line1": "1 38709U 12039C   25341.89848203  .00000284  00000+0  14142-3 0  9997",
        "tle_line2": "2 38709  98.9636  90.1870 0010923   8.1941 351.9414 14.24904758695464"
      },
      "geometry": {
        "type": "Point",
        "coordinates": [
          133.7835772323472,
          -76.99554821175354
        ]
      }
    },
    {
      "type": "Feature",
      "properties": {
        "norad_id": 38755,
        "name": "SPOT 6",
        "group": "resource",
        "lat": 39.975378495092585,
        "lon": -125.85373842902284,
        "alt_km": 694.0074339387829,
        "timestamp": "2025-12-08T08:59:00.429018+00:00",
        "meta_object_name": "SPOT 6",
        "meta_object_id": "2012-047A",
        "meta_epoch": "2025-12-07T22:28:04.785600",
        "meta_mean_motion": 14.58596054,
        "meta_eccentricity": 0.00010783,
        "meta_inclination": 98.1579,
        "meta_ra_of_asc_node": 46.809,
        "meta_arg_of_pericenter": 102.3154,
        "meta_mean_anomaly": 257.8166,
        "meta_ephemeris_type": 0,
        "meta_classification_type": "U",
        "meta_norad_cat_id": 38755,
        "meta_element_set_no": 999,
        "meta_rev_at_epoch": 70517,
        "meta_bstar": 0.00015939094,
        "meta_mean_motion_dot": 6.96e-06,
        "meta_mean_motion_ddot": 0,
        "tle_line1": "1 38755U 12047A   25341.93616650  .00000696  00000+0  15939-3 0  9993",
        "tle_line2": "2 38755  98.1579  46.8090 0001078 102.3154 257.8166 14.58596054705170"
      },
      "geometry": {
        "type": "Point",
        "coordinates": [
          -125.85373842902284,
          39.975378495092585
        ]
      }
    },
    {
      "type": "Feature",
      "properties": {
        "norad_id": 39019,
        "name": "PLEIADES 1B",
        "group": "resource",
        "lat": 38.216852872002235,
        "lon": 48.59158856618043,
        "alt_km": 694.4524870983569,
        "timestamp": "2025-12-08T08:59:00.429029+00:00",
        "meta_object_name": "PLEIADES 1B",
        "meta_object_id": "2012-068A",
        "meta_epoch": "2025-12-07T22:55:40.799712",
        "meta_mean_motion": 14.58545459,
        "meta_eccentricity": 0.00012201,
        "meta_inclination": 98.1801,
        "meta_ra_of_asc_node": 54.6826,
        "meta_arg_of_pericenter": 87.2824,
        "meta_mean_anomaly": 272.8515,
        "meta_ephemeris_type": 0,
        "meta_classification_type": "U",
        "meta_norad_cat_id": 39019,
        "meta_element_set_no": 999,
        "meta_rev_at_epoch": 69297,
        "meta_bstar": 0.00016120003,
        "meta_mean_motion_dot": 7.04e-06,
        "meta_mean_motion_ddot": 0,
        "tle_line1": "1 39019U 12068A   25341.95533333  .00000704  00000+0  16120-3 0  9991",
        "tle_line2": "2 39019  98.1801  54.6826 0001220  87.2824 272.8515 14.58545459692971"
      },
      "geometry": {
        "type": "Point",
        "coordinates": [
          48.59158856618043,
          38.216852872002235
        ]
      }
    },
    {
      "type": "Feature",
      "properties": {
        "norad_id": 39030,
        "name": "GOKTURK 2",
        "group": "resource",
        "lat": -8.410461673994181,
        "lon": -174.612741655607,
        "alt_km": 648.5299373186626,
        "timestamp": "2025-12-08T08:59:00.429040+00:00",
        "meta_object_name": "GOKTURK 2",
        "meta_object_id": "2012-073A",
        "meta_epoch": "2025-12-07T21:37:37.993152",
        "meta_mean_motion": 14.75280373,
        "meta_eccentricity": 8.946e-05,
        "meta_inclination": 97.6904,
        "meta_ra_of_asc_node": 183.7927,
        "meta_arg_of_pericenter": 103.9793,
        "meta_mean_anomaly": 256.1516,
        "meta_ephemeris_type": 0,
        "meta_classification_type": "U",
        "meta_norad_cat_id": 39030,
        "meta_element_set_no": 999,
        "meta_rev_at_epoch": 69630,
        "meta_bstar": 0.00015835957,
        "meta_mean_motion_dot": 1.025e-05,
        "meta_mean_motion_ddot": 0,
        "tle_line1": "1 39030U 12073A   25341.90113418  .00001025  00000+0  15836-3 0  9993",
        "tle_line2": "2 39030  97.6904 183.7927 0000894 103.9793 256.1516 14.75280373696302"
      },
      "geometry": {
        "type": "Point",
        "coordinates": [
          -174.612741655607,
          -8.410461673994181
        ]
      }
    },
    {
      "type": "Feature",
      "properties": {
        "norad_id": 39084,
        "name": "LANDSAT 8",
        "group": "resource",
        "lat": -50.73993687272152,
        "lon": -139.65942935001476,
        "alt_km": 710.1073262629379,
        "timestamp": "2025-12-08T08:59:00.429051+00:00",
        "meta_object_name": "LANDSAT 8",
        "meta_object_id": "2013-008A",
        "meta_epoch": "2025-12-07T22:02:10.821120",
        "meta_mean_motion": 14.57106445,
        "meta_eccentricity": 0.00011235,
        "meta_inclination": 98.2078,
        "meta_ra_of_asc_node": 50.0627,
        "meta_arg_of_pericenter": 86.3664,
        "meta_mean_anomaly": 273.7663,
        "meta_ephemeris_type": 0,
        "meta_classification_type": "U",
        "meta_norad_cat_id": 39084,
        "meta_element_set_no": 999,
        "meta_rev_at_epoch": 67004,
        "meta_bstar": 0.00017042394,
        "meta_mean_motion_dot": 7.23e-06,
        "meta_mean_motion_ddot": 0,
        "tle_line1": "1 39084U 13008A   25341.91818080  .00000723  00000+0  17042-3 0  9994",
        "tle_line2": "2 39084  98.2078  50.0627 0001123  86.3664 273.7663 14.57106445670048"
      },
      "geometry": {
        "type": "Point",
        "coordinates": [
          -139.65942935001476,
          -50.73993687272152
        ]
      }
    },
    {
      "type": "Feature",
      "properties": {
        "norad_id": 39086,
        "name": "SARAL",
        "group": "resource",
        "lat": -58.21571861710745,
        "lon": -27.69023756773133,
        "alt_km": 790.6905545330692,
        "timestamp": "2025-12-08T08:59:00.429061+00:00",
        "meta_object_name": "SARAL",
        "meta_object_id": "2013-009A",
        "meta_epoch": "2025-12-07T23:29:25.109376",
        "meta_mean_motion": 14.32754409,
        "meta_eccentricity": 0.00027653,
        "meta_inclination": 98.5505,
        "meta_ra_of_asc_node": 165.9713,
        "meta_arg_of_pericenter": 117.5852,
        "meta_mean_anomaly": 242.5614,
        "meta_ephemeris_type": 0,
        "meta_classification_type": "U",
        "meta_norad_cat_id": 39086,
        "meta_element_set_no": 999,
        "meta_rev_at_epoch": 66822,
        "meta_bstar": 9.6432095e-05,
        "meta_mean_motion_dot": 2.19e-06,
        "meta_mean_motion_ddot": 0,
        "tle_line1": "1 39086U 13009A   25341.97876284  .00000219  00000+0  96432-4 0  9994",
        "tle_line2": "2 39086  98.5505 165.9713 0002765 117.5852 242.5614 14.32754409668228"
      },
      "geometry": {
        "type": "Point",
        "coordinates": [
          -27.69023756773133,
          -58.21571861710745
        ]
      }
    },
    {
      "type": "Feature",
      "properties": {
        "norad_id": 39150,
        "name": "GAOFEN-1",
        "group": "resource",
        "lat": 49.1784357082509,
        "lon": 43.82094200327191,
        "alt_km": 639.4965579656855,
        "timestamp": "2025-12-08T08:59:00.429072+00:00",
        "meta_object_name": "GAOFEN-1",
        "meta_object_id": "2013-018A",
        "meta_epoch": "2025-12-07T22:59:58.060032",
        "meta_mean_motion": 14.76520485,
        "meta_eccentricity": 0.00179601,
        "meta_inclination": 97.9332,
        "meta_ra_of_asc_node": 52.702,
        "meta_arg_of_pericenter": 157.9773,
        "meta_mean_anomaly": 202.2212,
        "meta_ephemeris_type": 0,
        "meta_classification_type": "U",
        "meta_norad_cat_id": 39150,
        "meta_element_set_no": 999,
        "meta_rev_at_epoch": 68002,
        "meta_bstar": 0.00020381019,
        "meta_mean_motion_dot": 1.373e-05,
        "meta_mean_motion_ddot": 0,
        "tle_line1": "1 39150U 13018A   25341.95831088  .00001373  00000+0  20381-3 0  9998",
        "tle_line2": "2 39150  97.9332  52.7020 0017960 157.9773 202.2212 14.76520485680020"
      },
      "geometry": {
        "type": "Point",
        "coordinates": [
          43.82094200327191,
          49.1784357082509
        ]
      }
    }
  ]
}